CTC2_L_00545008-07
1 29592U 23718MI  26037.47798611  .00000000  00000+0  00000-0 0  9998
2 29592  98.0000  84.0000 0000000   0.0000 312.0000 14.70334339    12
CTC2_L_00545008-08
1 29593U 25106J   26037.47798611  .00000000  00000+0  00000-0 0  9992
2 29593  98.0000  84.0000 0000000   0.0000 357.0000 14.70334339    12
CTC2_L_00545009-01
1 29594U 25640BU  26037.47798611  .00000000  00000+0  00000-0 0  9996
2 29594  98.0000  96.0000 0000000   0.0000  48.0000 14.70334339    13
CTC2_L_00545009-02
1 29595U 24068XB  26037.47798611  .00000000  00000+0  00000-0 0  9990
2 29595  98.0000  96.0000 0000000   0.0000  93.0000 14.70334339    14
CTC2_L_00545009-03
1 29596U 25174OI  26037.47798611  .00000000  00000+0  00000-0 0  9990
2 29596  98.0000  96.0000 0000000   0.0000 138.0000 14.70334339    15
CTC2_L_00545009-04
1 29597U 22467LW  26037.47798611  .00000000  00000+0  00000-0 0  9993
2 29597  98.0000  96.0000 0000000   0.0000 183.0000 14.70334339    16
CTC2_L_00545009-05
1 29598U 23991SD  26037.47798611  .00000000  00000+0  00000-0 0  9997
2 29598  98.0000  96.0000 0000000   0.0000 228.0000 14.70334339    17
CTC2_L_00545009-06
1 29599U 23134LC  26037.47798611  .00000000  00000+0  00000-0 0  9997
2 29599  98.0000  96.0000 0000000   0.0000 273.0000 14.70334339    18
CTC2_L_00545009-07
1 29600U 25891RJ  26037.47798611  .00000000  00000+0  00000-0 0  9992
2 29600  98.0000  96.0000 0000000   0.0000 318.0000 14.70334339    11
CTC2_L_00545009-08
1 29601U 25774LF  26037.47798611  .00000000  00000+0  00000-0 0  9993
2 29601  98.0000  96.0000 0000000   0.0000   3.0000 14.70334339    13
CTC2_L_00545010-01
1 29602U 24293DM  26037.47798611  .00000000  00000+0  00000-0 0  9999
2 29602  98.0000 108.0000 0000000   0.0000  54.0000 14.70334339    14
CTC2_L_00545010-02
1 29603U 26561JX  26037.47798611  .00000000  00000+0  00000-0 0  9990
2 29603  98.0000 108.0000 0000000   0.0000  99.0000 14.70334339    14
CTC2_L_00545010-03
1 29604U 23992NP  26037.47798611  .00000000  00000+0  00000-0 0  9996
2 29604  98.0000 108.0000 0000000   0.0000 144.0000 14.70334339    16
CTC2_L_00545010-04
1 29605U 25206KG  26037.47798611  .00000000  00000+0  00000-0 0  9997
2 29605  98.0000 108.0000 0000000   0.0000 189.0000 14.70334339    16
CTC2_L_00545010-05
1 29606U 22210GS  26037.47798611  .00000000  00000+0  00000-0 0  9990
2 29606  98.0000 108.0000 0000000   0.0000 234.0000 14.70334339    18
CTC2_L_00545010-06
1 29607U 23708BF  26037.47798611  .00000000  00000+0  00000-0 0  9994
2 29607  98.0000 108.0000 0000000   0.0000 279.0000 14.70334339    18
CTC2_L_00545010-07
1 29608U 22395JL  26037.47798611  .00000000  00000+0  00000-0 0  9996
2 29608  98.0000 108.0000 0000000   0.0000 324.0000 14.70334339    10
CTC2_L_00545010-08
1 29609U 24754VQ  26037.47798611  .00000000  00000+0  00000-0 0  9998
2 29609  98.0000 108.0000 0000000   0.0000   9.0000 14.70334339    11
CTC2_L_00545011-01
1 29610U 26573YE  26037.47798611  .00000000  00000+0  00000-0 0  9991
2 29610  98.0000 120.0000 0000000   0.0000  60.0000 14.70334339    14
CTC2_L_00545011-02
1 29611U 25377EB  26037.47798611  .00000000  00000+0  00000-0 0  9993
2 29611  98.0000 120.0000 0000000   0.0000 105.0000 14.70334339    15
CTC2_L_00545011-03
1 29612U 24414NF  26037.47798611  .00000000  00000+0  00000-0 0  9995
2 29612  98.0000 120.0000 0000000   0.0000 150.0000 14.70334339    16
CTC2_L_00545011-04
1 29613U 23268VO  26037.47798611  .00000000  00000+0  00000-0 0  9992
2 29613  98.0000 120.0000 0000000   0.0000 195.0000 14.70334339    16
CTC2_L_00545011-05
1 29614U 26817CI  26037.47798611  .00000000  00000+0  00000-0 0  9996
2 29614  98.0000 120.0000 0000000   0.0000 240.0000 14.70334339    18
CTC2_L_00545011-06
1 29615U 24524YI  26037.47798611  .00000000  00000+0  00000-0 0  9990
2 29615  98.0000 120.0000 0000000   0.0000 285.0000 14.70334339    18
CTC2_L_00545011-07
1 29616U 23907PE  26037.47798611  .00000000  00000+0  00000-0 0  9995
2 29616  98.0000 120.0000 0000000   0.0000 330.0000 14.70334339    10
CTC2_L_00545011-08
1 29617U 23132RH  26037.47798611  .00000000  00000+0  00000-0 0  9996
2 29617  98.0000 120.0000 0000000   0.0000  15.0000 14.70334339    11
CTC2_L_00545012-01
1 29618U 24531VR  26037.47798611  .00000000  00000+0  00000-0 0  9991
2 29618  98.0000 132.0000 0000000   0.0000  66.0000 14.70334339    11
CTC2_L_00545012-02
1 29619U 25675BX  26037.47798611  .00000000  00000+0  00000-0 0  9992
2 29619  98.0000 132.0000 0000000   0.0000 111.0000 14.70334339    13
CTC2_L_00545012-03
1 29620U 23295CL  26037.47798611  .00000000  00000+0  00000-0 0  9990
2 29620  98.0000 132.0000 0000000   0.0000 156.0000 14.70334339    14
CTC2_L_00545012-04
1 29621U 23728EP  26037.47798611  .00000000  00000+0  00000-0 0  9992
2 29621  98.0000 132.0000 0000000   0.0000 201.0000 14.70334339    16
CTC2_L_00545012-05
1 29622U 25555JN  26037.47798611  .00000000  00000+0  00000-0 0  9993
2 29622  98.0000 132.0000 0000000   0.0000 246.0000 14.70334339    16
CTC2_L_00545012-06
1 29623U 25986A   26037.47798611  .00000000  00000+0  00000-0 0  9992
2 29623  98.0000 132.0000 0000000   0.0000 291.0000 14.70334339    17
CTC2_L_00545012-07
1 29624U 22368AB  26037.47798611  .00000000  00000+0  00000-0 0  9994
2 29624  98.0000 132.0000 0000000   0.0000 336.0000 14.70334339    18
CTC2_L_00545012-08
1 29625U 22021LD  26037.47798611  .00000000  00000+0  00000-0 0  9991
2 29625  98.0000 132.0000 0000000   0.0000  21.0000 14.70334339    10
CTC2_L_00545013-01
1 29626U 22731LM  26037.47798611  .00000000  00000+0  00000-0 0  9990
2 29626  98.0000 144.0000 0000000   0.0000  72.0000 14.70334339    10
CTC2_L_00545013-02
1 29627U 23212LN  26037.47798611  .00000000  00000+0  00000-0 0  9996
2 29627  98.0000 144.0000 0000000   0.0000 117.0000 14.70334339    11
CTC2_L_00545013-03
1 29628U 24028S   26037.47798611  .00000000  00000+0  00000-0 0  9993
2 29628  98.0000 144.0000 0000000   0.0000 162.0000 14.70334339    12
CTC2_L_00545013-04
1 29629U 26629PD  26037.47798611  .00000000  00000+0  00000-0 0  9993
2 29629  98.0000 144.0000 0000000   0.0000 207.0000 14.70334339    13
CTC2_L_00545013-05
1 29630U 23284T   26037.47798611  .00000000  00000+0  00000-0 0  9999
2 29630  98.0000 144.0000 0000000   0.0000 252.0000 14.70334339    15
CTC2_L_00545013-06
1 29631U 22073DV  26037.47798611  .00000000  00000+0  00000-0 0  9995
2 29631  98.0000 144.0000 0000000   0.0000 297.0000 14.70334339    15
CTC2_L_00545013-07
1 29632U 25678TO  26037.47798611  .00000000  00000+0  00000-0 0  9990
2 29632  98.0000 144.0000 0000000   0.0000 342.0000 14.70334339    17
CTC2_L_00545013-08
1 29633U 25020VF  26037.47798611  .00000000  00000+0  00000-0 0  9992
2 29633  98.0000 144.0000 0000000   0.0000  27.0000 14.70334339    18
CTC2_L_00545014-01
1 29634U 23748SE  26037.47798611  .00000000  00000+0  00000-0 0  9998
2 29634  98.0000 156.0000 0000000   0.0000  78.0000 14.70334339    18
CTC2_L_00545014-02
1 29635U 26211DU  26037.47798611  .00000000  00000+0  00000-0 0  9997
2 29635  98.0000 156.0000 0000000   0.0000 123.0000 14.70334339    10
CTC2_L_00545014-03
1 29636U 26330YT  26037.47798611  .00000000  00000+0  00000-0 0  9990
2 29636  98.0000 156.0000 0000000   0.0000 168.0000 14.70334339    10
CTC2_L_00545014-04
1 29637U 22799XB  26037.47798611  .00000000  00000+0  00000-0 0  9996
2 29637  98.0000 156.0000 0000000   0.0000 213.0000 14.70334339    12
CTC2_L_00545014-05
1 29638U 26285CL  26037.47798611  .00000000  00000+0  00000-0 0  9991
2 29638  98.0000 156.0000 0000000   0.0000 258.0000 14.70334339    12
CTC2_L_00545014-06
1 29639U 26128MA  26037.47798611  .00000000  00000+0  00000-0 0  9998
2 29639  98.0000 156.0000 0000000   0.0000 303.0000 14.70334339    14
CTC2_L_00545014-07
1 29640U 25250TZ  26037.47798611  .00000000  00000+0  00000-0 0  9995
2 29640  98.0000 156.0000 0000000   0.0000 348.0000 14.70334339    15
CTC2_L_00545014-08
1 29641U 26418LI  26037.47798611  .00000000  00000+0  00000-0 0  9993
2 29641  98.0000 156.0000 0000000   0.0000  33.0000 14.70334339    17
CTC2_L_00545015-01
1 29642U 22212QS  26037.47798611  .00000000  00000+0  00000-0 0  9992
2 29642  98.0000 168.0000 0000000   0.0000  84.0000 14.70334339    17
CTC2_L_00545015-02
1 29643U 24364WN  26037.47798611  .00000000  00000+0  00000-0 0  9993
2 29643  98.0000 168.0000 0000000   0.0000 129.0000 14.70334339    18
CTC2_L_00545015-03
1 29644U 25366XC  26037.47798611  .00000000  00000+0  00000-0 0  9997
2 29644  98.0000 168.0000 0000000   0.0000 174.0000 14.70334339    19
CTC2_L_00545015-04
1 29645U 22978KR  26037.47798611  .00000000  00000+0  00000-0 0  9994
2 29645  98.0000 168.0000 0000000   0.0000 219.0000 14.70334339    10
CTC2_L_00545015-05
1 29646U 24370CQ  26037.47798611  .00000000  00000+0  00000-0 0  9993
2 29646  98.0000 168.0000 0000000   0.0000 264.0000 14.70334339    11
CTC2_L_00545015-06
1 29647U 24203RN  26037.47798611  .00000000  00000+0  00000-0 0  9999
2 29647  98.0000 168.0000 0000000   0.0000 309.0000 14.70334339    12
CTC2_L_00545015-07
1 29648U 26922JG  26037.47798611  .00000000  00000+0  00000-0 0  9990
2 29648  98.0000 168.0000 0000000   0.0000 354.0000 14.70334339    13
CTC2_L_00545015-08
1 29649U 23070VM  26037.47798611  .00000000  00000+0  00000-0 0  9992
2 29649  98.0000 168.0000 0000000   0.0000  39.0000 14.70334339    14
CTC2_L_00545016-01
1 29650U 24124BK  26037.47798611  .00000000  00000+0  00000-0 0  9995
2 29650  98.0000 180.0000 0000000   0.0000  90.0000 14.70334339    17
CTC2_L_00545016-02
1 29651U 22087IT  26037.47798611  .00000000  00000+0  00000-0 0  9992
2 29651  98.0000 180.0000 0000000   0.0000 135.0000 14.70334339    18
CTC2_L_00545016-03
1 29652U 24868NE  26037.47798611  .00000000  00000+0  00000-0 0  9992
2 29652  98.0000 180.0000 0000000   0.0000 180.0000 14.70334339    19
CTC2_L_00545016-04
1 29653U 22880YR  26037.47798611  .00000000  00000+0  00000-0 0  9995
2 29653  98.0000 180.0000 0000000   0.0000 225.0000 14.70334339    10
